{
  "norad_id": 64308,
  "name": "STARLINK-34374",
  "history": [
    {
      "epoch": "2026-03-28T21:33:17.059104Z",
      "apogee_km": 574.9575194093322,
      "perigee_km": 569.1140921211572,
      "latitude_deg": -3.6215307721927744e-05,
      "longitude_deg": -3.5246502946783655,
      "height_km": 574.5113949160082,
      "semi_major_axis_km": 6950.172805765244,
      "eccentricity": 0.00042038,
      "inclination_deg": 70.0015,
      "raan_deg": 146.1084,
      "arg_perigee_deg": 269.0798,
      "mean_anomaly_deg": 90.9879,
      "mean_motion_rev_day": 14.98336495
    },
    {
      "epoch": "2026-03-29T03:57:46.708416Z",
      "apogee_km": 574.8258820999063,
      "perigee_km": 568.800275381639,
      "latitude_deg": 9.974786087320806e-06,
      "longitude_deg": -100.58484922945907,
      "height_km": 574.0919681011196,
      "semi_major_axis_km": 6949.950078740772,
      "eccentricity": 0.0004335,
      "inclination_deg": 70.0013,
      "raan_deg": 145.4349,
      "arg_perigee_deg": 272.8521,
      "mean_anomaly_deg": 87.2142,
      "mean_motion_rev_day": 14.98408522
    },
    {
      "epoch": "2026-03-29T21:35:17.034144Z",
      "apogee_km": 574.8528564082835,
      "perigee_km": 569.2315514681377,
      "latitude_deg": -9.025459068696483e-05,
      "longitude_deg": -7.537079080082313,
      "height_km": 574.3604347715161,
      "semi_major_axis_km": 6950.17920393821,
      "eccentricity": 0.0004044,
      "inclination_deg": 70.0016,
      "raan_deg": 143.5829,
      "arg_perigee_deg": 272.2488,
      "mean_anomaly_deg": 87.8207,
      "mean_motion_rev_day": 14.98334426
    }
  ]
}